{"fetched_at":"2026-05-20T21:56:09Z","count":15399,"tles":[{"name":"STARLINK-31619","line1":"1 59531U 24073W   26140.06809985  .00019683  00000+0  72229-3 0  9998","line2":"2 59531  43.0009 274.7718 0001834 279.6638  80.4007 15.27606920118214","category":"Starlink"},{"name":"STARLINK-30998","line1":"1 58513U 23191F   26140.07184150  .00000793  00000+0  38344-4 0  9991","line2":"2 58513  43.0045  60.7080 0000780 272.7256  87.3506 15.27572660136412","category":"Starlink"},{"name":"CZ-2F DEB","line1":"1 59595U 24078E   24117.85336774  .13837883  68135-5  88539-2 0  9996","line2":"2 59595  41.2954  36.8973 0161439 124.3929 237.3200 15.94157667   211","category":"Other"},{"name":"ARKTIKA-M 2","line1":"1 58584U 23198A   26138.84987002  .00000166  00000+0  00000+0 0  9992","line2":"2 58584  63.1901 157.6300 6893056 267.5473  18.8003  2.00594140 17738","category":"Other"},{"name":"STARLINK-31880","line1":"1 59661U 24084H   26139.88765153  .00010617  00000+0  39455-3 0  9992","line2":"2 59661  43.0010 356.1085 0001102 275.1335  84.9391 15.27599585115305","category":"Starlink"},{"name":"FLOCK 4V-23","line1":"1 46737U 20061BM  23312.74299618  .10462062  24426-5  16014-2 0  9991","line2":"2 46737  97.3078  27.5768 0012074 289.8834  70.1161 16.33979317169757","category":"Other"},{"name":"STARLINK-5583","line1":"1 55768U 23028AD  23362.45233450  .00004474  00000+0  38253-3 0  9990","line2":"2 55768  69.9996  87.2685 0002977 265.1301  94.9518 14.98327880 46354","category":"Starlink"},{"name":"STARLINK-6167","line1":"1 57126U 23090AB  26140.00089611  .00000637  00000+0  32689-4 0  9990","line2":"2 57126  43.0027 239.2320 0001975 281.7242  78.3388 15.27576612161230","category":"Starlink"},{"name":"COSMOS 2251 DEB","line1":"1 37089U 93036BFK 26103.71937073  .00002678  00000+0  55393-3 0  9997","line2":"2 37089  74.0348 274.9738 0129406 345.2542  14.4859 14.55677149678834","category":"Other"},{"name":"STARLINK-31370","line1":"1 59520U 24073K   26140.09378081  .00002520  00000+0  10105-3 0  9994","line2":"2 59520  43.0024 274.9663 0001676 266.4878  93.5782 15.27585899117095","category":"Starlink"},{"name":"STARLINK-32419","line1":"1 61637U 24191S   26139.95521848 -.00000924  00000+0 -24058-4 0  9992","line2":"2 61637  43.0015 112.1949 0001161 271.1288  88.9430 15.27568881 88439","category":"Starlink"},{"name":"QIANFAN-72","line1":"1 62802U 25016T   26140.14807373  .00000089  00000+0  11949-3 0  9991","line2":"2 62802  88.9709  86.6399 0016650 258.0798 101.8487 13.51011122 68616","category":"Other"},{"name":"STARLINK-4567","line1":"1 53970U 22125G   26140.04237297  .00001604  00000+0  11886-3 0  9990","line2":"2 53970  53.2175 258.8464 0001245  91.2873 268.8262 15.08839272200177","category":"Starlink"},{"name":"FENGYUN 1C DEB","line1":"1 30608U 99025AMP 26104.63889593  .00001473  00000+0  59692-3 0  9994","line2":"2 30608  98.6913 172.0246 0015578 174.7426 314.0707 14.29174887991949","category":"Weather"},{"name":"IRIDIUM 33 DEB","line1":"1 34107U 97051DS  23178.13045684  .00006776  00000+0  12691-2 0  9995","line2":"2 34107  86.3773  32.4076 0010445 167.4766 321.2514 14.64668099759220","category":"Other"},{"name":"TIANHUI 6A","line1":"1 55836U 23030A   26140.16290203  .00000363  00000+0  27023-3 0  9999","line2":"2 55836  99.0130 148.7384 0002286  69.1458 290.9951 14.01345858163472","category":"Other"},{"name":"COSMOS 2251 DEB","line1":"1 37306U 93036BJW 23176.86780928  .00023937  00000+0  31751-2 0  9999","line2":"2 37306  74.0707 219.4542 0057557 102.3074  70.6487 14.78588085750467","category":"Other"},{"name":"STARLINK-31662","line1":"1 59584U 24076W   26139.84512014  .00002215  00000+0  90021-4 0  9991","line2":"2 59584  43.0043 327.2634 0001774 262.6866  97.3784 15.27575971117386","category":"Starlink"},{"name":"SL-3 R/B","line1":"1 04814U 70113B   24097.01620416  .13952317 -10211-5  16615-3 0  9995","line2":"2 04814  81.0844 259.8184 0007917 279.9529 220.0047 16.49797980917202","category":"Other"},{"name":"STARLINK-32591","line1":"1 61718U 24196M   26140.20394299  .00000333  00000+0  20991-4 0  9999","line2":"2 61718  53.1600 115.7820 0001248  79.3112 280.8032 15.34390454 88290","category":"Starlink"},{"name":"STARLINK-11696 [DTC]","line1":"1 64324U 25124H   26139.56393839  .00224592  00000+0  16972-2 0  9990","line2":"2 64324  43.0007 321.7747 0004147 280.7589  79.2812 15.70969880 53988","category":"Starlink"},{"name":"ARIANE 5 DEB [SYLDA]","line1":"1 26722U 01011D   26104.60606282  .00000029  00000+0  44481-2 0  9998","line2":"2 26722   2.4255 335.9608 7078304 104.8122 336.7812  2.22962331204499","category":"Other"},{"name":"STARLINK-36174","line1":"1 67166U 25303D   26140.07027036  .00008907  00000+0  33270-3 0  9998","line2":"2 67166  43.0020 267.4491 0000544 287.4660  72.6132 15.27589732 23652","category":"Starlink"},{"name":"STARLINK-37025","line1":"1 68223U 26053S   26140.15960890  .00015282  00000+0  47459-3 0  9997","line2":"2 68223  97.2845  15.7194 0001529  94.2869 265.8548 15.33453533 11173","category":"Starlink"},{"name":"STARLINK-32695","line1":"1 62866U 25022N   26140.20168384  .00018865  00000+0  56791-3 0  9992","line2":"2 62866  53.1583 156.4052 0001111  84.6828 275.4301 15.34408781 72864","category":"Starlink"},{"name":"STARLINK-35033","line1":"1 65468U 25195L   26139.89872471  .00022343  00000+0  72931-3 0  9996","line2":"2 65468  53.1573 286.8844 0000449   3.5288 356.5716 15.31711642 40905","category":"Starlink"},{"name":"STARLINK-5163","line1":"1 54054U 22136D   26139.97384576  .00006247  00000+0  41067-3 0  9991","line2":"2 54054  53.2183  24.2421 0002003  97.2679 262.8540 15.08799707197605","category":"Starlink"},{"name":"FENGYUN 1C DEB","line1":"1 30699U 99025ARH 26103.82075470  .00003889  00000+0  10316-2 0  9997","line2":"2 30699  99.3173 240.6611 0003099 229.4381 130.6540 14.49333894993807","category":"Weather"},{"name":"COSMOS 2251 DEB","line1":"1 34344U 93036PS  26104.56519059  .00001056  00000+0  47527-3 0  9991","line2":"2 34344  73.9754 250.8973 0154126  48.1188  77.2395 14.17335466878363","category":"Other"},{"name":"PRC TEST SPACECRAFT 3","line1":"1 58573U 23195A   24013.74132215  .00047371  00000+0  30585-3 0  9998","line2":"2 58573  49.9906 105.6424 0020608  86.9002 273.4332 15.75278322  4752","category":"Other"},{"name":"STARLINK-6259","line1":"1 76259C 23088AT  23186.05187500 -.00977625  00000-0 -57206-2 0  1864","line2":"2 76259  42.9972  42.4364 0001377 273.3679 181.6183 15.78347594    14","category":"Starlink"},{"name":"STARLINK-35975","line1":"1 66525U 25265K   26139.95896398  .00009202  00000+0  34332-3 0  9992","line2":"2 66525  42.9993 235.4044 0001284 264.8603  95.2102 15.27595816 28017","category":"Starlink"},{"name":"SES-18","line1":"1 55970U 23038A   26139.93097529 -.00000105  00000+0  00000+0 0  9992","line2":"2 55970   0.0131 288.7409 0000950  30.1884 150.7333  1.00275501 11824","category":"Other"},{"name":"STARLINK-5505","line1":"1 57259U 23094AT  23362.43641896  .00104908  00000+0  59816-3 0  9996","line2":"2 57259  42.9935 355.4891 0011556 118.0459 242.1581 15.77771325 27460","category":"Starlink"},{"name":"FENGYUN 1C DEB","line1":"1 37471U 99025EJR 23178.34829919  .00009997  00000+0  92634-3 0  9993","line2":"2 37471  98.7319 216.8624 0149316 257.5878 100.8590 14.86569432773723","category":"Weather"},{"name":"STARLINK-31787","line1":"1 59650U 24082V   26140.16852387  .00000608  00000+0  31608-4 0  9999","line2":"2 59650  43.0017  96.1352 0000770 265.4115  94.6649 15.27576553115940","category":"Starlink"},{"name":"GOES 1 (SMS-C)","line1":"1 08366U 75100A   26105.63137889  .00000037  00000+0  00000+0 0  9993","line2":"2 08366   4.7664 278.2499 0004444   2.7834  24.8939  1.00247418184446","category":"Weather"},{"name":"STARLINK-34198","line1":"1 64388U 25127U   26139.71473813  .00009911  00000+0  36909-3 0  9990","line2":"2 64388  43.0014 138.3059 0001264 270.4608  89.6099 15.27588893 53333","category":"Starlink"},{"name":"CZ-12A R/B","line1":"1 67231U 25308A   25362.77966721  .11863649  47688-5  10694-3 0  9999","line2":"2 67231  69.6966  46.2284 0006373 167.5134 192.6259 16.51512804   934","category":"Other"},{"name":"FALCON 9 R/B","line1":"1 57494U 23112B   23241.17525922  .00023277 -10257-5  82886-4 0  9991","line2":"2 57494  24.4474 211.4234 8103737 189.8411 127.2861  1.36833444   355","category":"Other"},{"name":"STARLINK-37165","line1":"1 68287U 26055AB  26139.99234066  .00024152  00000+0  72401-3 0  9999","line2":"2 68287  53.1580 346.9170 0000636  87.2979 272.8096 15.34384035 10867","category":"Starlink"},{"name":"STARLINK-35170","line1":"1 65532U 25200N   26140.19445566 -.00009435  00000+0 -65027-3 0  9998","line2":"2 65532  97.4710 210.0592 0002202 141.1471 218.9915 15.05670939 39894","category":"Starlink"},{"name":"ONEWEB-0507","line1":"1 54125U 22138N   26139.91652388  .00000003  00000+0 -25550-4 0  9990","line2":"2 54125  87.9145 310.6130 0001706  86.5272 273.6056 13.19724977173124","category":"Other"},{"name":"IRIDIUM 33 DEB","line1":"1 34486U 97051GB  26104.84879897  .00012502  00000+0  89334-3 0  9999","line2":"2 34486  86.3861 314.8065 0010210  36.2430 340.5924 15.04343461908328","category":"Other"},{"name":"STARLINK-31077","line1":"1 58637U 23203V   26139.73275057  .00003063  00000+0  12083-3 0  9994","line2":"2 58637  43.0046  26.1277 0001001 289.5073  70.5670 15.27569375135654","category":"Starlink"},{"name":"STARLINK-5800","line1":"1 56041U 23042BH  26139.89315451 -.00001276  00000+0 -36888-4 0  9998","line2":"2 56041  43.0022 351.8674 0001470 237.2717 122.7993 15.27555554174058","category":"Starlink"},{"name":"STARLINK-6377","line1":"1 57341U 23099P   26140.20010200  .00000918  00000+0  42905-4 0  9992","line2":"2 57341  43.0019 211.9072 0001690 267.9729  92.0929 15.27578035156971","category":"Starlink"},{"name":"FENGYUN 1C DEB","line1":"1 37693U 99025ELJ 26100.94457008  .00000803  00000+0  47819-3 0  9991","line2":"2 37693  98.7009 101.5178 0072808  97.5553 293.4293 14.08775203638270","category":"Weather"}]}